start=new Date('2021-09-12T00:00:00.000Z').valueOf();
sats=[{"MEAN_ANOMALY":"354.9435","GP_ID":"184511918","TIME_SYSTEM":"UTC","MEAN_MOTION_DDOT":"0.0000000000000","REV_AT_EPOCH":"2075","OBJECT_NAME":"STARLINK-2634","ARG_OF_PERICENTER":"99.9774","ELEMENT_SET_NO":"999","PERIOD":"95.592","CLASSIFICATION_TYPE":"U","CENTER_NAME":"EARTH","REF_FRAME":"TEME","APOAPSIS":"547.868","SITE":"AFETR","NORAD_CAT_ID":"48445","MEAN_MOTION":"15.06408459","EPOCH":"2021-09-11T22:00:00.999936","LAUNCH_DATE":"2021-05-09","OBJECT_ID":"2021-040T","MEAN_MOTION_DOT":"-0.00030299","FILE":"3113334","TLE_LINE1":"1 48445U 21040T   21254.91667824 -.00030299  00000-0 -20234-2 0  9997","SEMIMAJOR_AXIS":"6925.323","ECCENTRICITY":"0.00009820","DECAY_DATE":null,"COUNTRY_CODE":"US","BSTAR":"-0.00202340000000","EPHEMERIS_TYPE":"0","INCLINATION":"53.0536","RA_OF_ASC_NODE":"342.8316","RCS_SIZE":"LARGE","TLE_LINE2":"2 48445  53.0536 342.8316 0000982  99.9774 354.9435 15.06408459 20759","PERIAPSIS":"546.508","OBJECT_TYPE":"PAYLOAD","MEAN_ELEMENT_THEORY":"SGP4"},{"CENTER_NAME":"EARTH","REF_FRAME":"TEME","SITE":"AFETR","APOAPSIS":"547.960","MEAN_MOTION":"15.06412074","EPOCH":"2021-09-11T22:00:00.999936","NORAD_CAT_ID":"48446","MEAN_MOTION_DDOT":"0.0000000000000","GP_ID":"184536302","TIME_SYSTEM":"UTC","MEAN_ANOMALY":"20.5173","REV_AT_EPOCH":"356","ARG_OF_PERICENTER":"94.3993","OBJECT_NAME":"STARLINK-2247","ELEMENT_SET_NO":"999","CLASSIFICATION_TYPE":"U","PERIOD":"95.591","DECAY_DATE":null,"COUNTRY_CODE":"US","INCLINATION":"53.0547","EPHEMERIS_TYPE":"0","BSTAR":"-0.00199540000000","RA_OF_ASC_NODE":"342.8329","RCS_SIZE":"LARGE","TLE_LINE2":"2 48446  53.0547 342.8329 0001131  94.3993  20.5173 15.06412074  3568","PERIAPSIS":"546.393","OBJECT_TYPE":"PAYLOAD","MEAN_ELEMENT_THEORY":"SGP4","LAUNCH_DATE":"2021-05-09","OBJECT_ID":"2021-040U","MEAN_MOTION_DOT":"-0.00029888","FILE":"3113379","TLE_LINE1":"1 48446U 21040U   21254.91667824 -.00029888  00000-0 -19954-2 0  9997","ECCENTRICITY":"0.00011310","SEMIMAJOR_AXIS":"6925.312"},{"FILE":"3113379","TLE_LINE1":"1 48447U 21040V   21254.91667824 -.00030973  00000-0 -20692-2 0  9996","ECCENTRICITY":"0.00011000","SEMIMAJOR_AXIS":"6925.332","OBJECT_ID":"2021-040V","LAUNCH_DATE":"2021-05-09","MEAN_MOTION_DOT":"-0.00030973","PERIAPSIS":"546.435","TLE_LINE2":"2 48447  53.0531 342.8300 0001100 102.4635  32.4800 15.06405413  3604","OBJECT_TYPE":"PAYLOAD","MEAN_ELEMENT_THEORY":"SGP4","DECAY_DATE":null,"COUNTRY_CODE":"US","BSTAR":"-0.00206920000000","EPHEMERIS_TYPE":"0","INCLINATION":"53.0531","RA_OF_ASC_NODE":"342.8300","RCS_SIZE":"LARGE","ELEMENT_SET_NO":"999","PERIOD":"95.592","CLASSIFICATION_TYPE":"U","MEAN_ANOMALY":"32.4800","TIME_SYSTEM":"UTC","GP_ID":"184536490","MEAN_MOTION_DDOT":"0.0000000000000","REV_AT_EPOCH":"360","OBJECT_NAME":"STARLINK-2269","ARG_OF_PERICENTER":"102.4635","REF_FRAME":"TEME","APOAPSIS":"547.959","SITE":"AFETR","NORAD_CAT_ID":"48447","MEAN_MOTION":"15.06405413","EPOCH":"2021-09-11T22:00:00.999936","CENTER_NAME":"EARTH"},{"OBJECT_ID":"2021-040W","LAUNCH_DATE":"2021-05-09","MEAN_MOTION_DOT":"-0.00033086","FILE":"3113379","TLE_LINE1":"1 48448U 21040W   21254.91667824 -.00033086  00000-0 -22120-2 0  9993","ECCENTRICITY":"0.00010460","SEMIMAJOR_AXIS":"6925.316","RA_OF_ASC_NODE":"342.8319","RCS_SIZE":"LARGE","COUNTRY_CODE":"US","DECAY_DATE":null,"INCLINATION":"53.0540","EPHEMERIS_TYPE":"0","BSTAR":"-0.00221200000000","OBJECT_TYPE":"PAYLOAD","MEAN_ELEMENT_THEORY":"SGP4","PERIAPSIS":"546.456","TLE_LINE2":"2 48448  53.0540 342.8319 0001046 131.1671 228.9059 15.06410709  3616","REV_AT_EPOCH":"361","ARG_OF_PERICENTER":"131.1671","OBJECT_NAME":"STARLINK-2632","GP_ID":"184536073","TIME_SYSTEM":"UTC","MEAN_MOTION_DDOT":"0.0000000000000","MEAN_ANOMALY":"228.9059","CLASSIFICATION_TYPE":"U","PERIOD":"95.591","ELEMENT_SET_NO":"999","CENTER_NAME":"EARTH","APOAPSIS":"547.905","SITE":"AFETR","MEAN_MOTION":"15.06410709","EPOCH":"2021-09-11T22:00:00.999936","NORAD_CAT_ID":"48448","REF_FRAME":"TEME"},{"OBJECT_NAME":"STARLINK-2655","ARG_OF_PERICENTER":"93.5011","REV_AT_EPOCH":"359","MEAN_ANOMALY":"61.4247","TIME_SYSTEM":"UTC","GP_ID":"184536260","MEAN_MOTION_DDOT":"0.0000000000000","PERIOD":"95.591","CLASSIFICATION_TYPE":"U","ELEMENT_SET_NO":"999","CENTER_NAME":"EARTH","NORAD_CAT_ID":"48449","MEAN_MOTION":"15.06417896","EPOCH":"2021-09-11T22:00:00.999936","SITE":"AFETR","APOAPSIS":"547.800","REF_FRAME":"TEME","MEAN_MOTION_DOT":"-0.00030410","OBJECT_ID":"2021-040X","LAUNCH_DATE":"2021-05-09","SEMIMAJOR_AXIS":"6925.294","TLE_LINE1":"1 48449U 21040X   21254.91667824 -.00030410  00000-0 -20304-2 0  9994","ECCENTRICITY":"0.00009260","FILE":"3113379","RCS_SIZE":"LARGE","RA_OF_ASC_NODE":"342.8306","BSTAR":"-0.00203040000000","EPHEMERIS_TYPE":"0","INCLINATION":"53.0536","DECAY_DATE":null,"COUNTRY_CODE":"US","OBJECT_TYPE":"PAYLOAD","MEAN_ELEMENT_THEORY":"SGP4","PERIAPSIS":"546.517","TLE_LINE2":"2 48449  53.0536 342.8306 0000926  93.5011  61.4247 15.06417896  3593"},{"LAUNCH_DATE":"2021-05-09","OBJECT_ID":"2021-040Y","MEAN_MOTION_DOT":"-0.00031194","FILE":"3113310","TLE_LINE1":"1 48450U 21040Y   21254.91667824 -.00031194  00000-0 -20843-2 0  9994","SEMIMAJOR_AXIS":"6925.340","ECCENTRICITY":"0.00011130","COUNTRY_CODE":"US","DECAY_DATE":null,"INCLINATION":"53.0532","EPHEMERIS_TYPE":"0","BSTAR":"-0.00208430000000","RA_OF_ASC_NODE":"342.8296","RCS_SIZE":"LARGE","TLE_LINE2":"2 48450  53.0532 342.8296 0001113  98.0753  76.8209 15.06402936 20766","PERIAPSIS":"546.434","OBJECT_TYPE":"PAYLOAD","MEAN_ELEMENT_THEORY":"SGP4","TIME_SYSTEM":"UTC","GP_ID":"184512437","MEAN_MOTION_DDOT":"0.0000000000000","MEAN_ANOMALY":"76.8209","REV_AT_EPOCH":"2076","ARG_OF_PERICENTER":"98.0753","OBJECT_NAME":"STARLINK-2660","ELEMENT_SET_NO":"999","CLASSIFICATION_TYPE":"U","PERIOD":"95.592","CENTER_NAME":"EARTH","REF_FRAME":"TEME","APOAPSIS":"547.975","SITE":"AFETR","MEAN_MOTION":"15.06402936","EPOCH":"2021-09-11T22:00:00.999936","NORAD_CAT_ID":"48450"},{"CENTER_NAME":"EARTH","REF_FRAME":"TEME","MEAN_MOTION":"15.06416678","EPOCH":"2021-09-11T22:00:00.999936","NORAD_CAT_ID":"48451","APOAPSIS":"547.951","SITE":"AFETR","GP_ID":"184511936","MEAN_MOTION_DDOT":"0.0000000000000","TIME_SYSTEM":"UTC","MEAN_ANOMALY":"102.1047","ARG_OF_PERICENTER":"92.8349","OBJECT_NAME":"STARLINK-2652","REV_AT_EPOCH":"2076","ELEMENT_SET_NO":"999","CLASSIFICATION_TYPE":"U","PERIOD":"95.591","EPHEMERIS_TYPE":"0","INCLINATION":"53.0539","BSTAR":"-0.00212730000000","COUNTRY_CODE":"US","DECAY_DATE":null,"RCS_SIZE":"LARGE","RA_OF_ASC_NODE":"342.8314","TLE_LINE2":"2 48451  53.0539 342.8314 0001139  92.8349 102.1047 15.06416678 20767","PERIAPSIS":"546.374","MEAN_ELEMENT_THEORY":"SGP4","OBJECT_TYPE":"PAYLOAD","MEAN_MOTION_DOT":"-0.00031840","LAUNCH_DATE":"2021-05-09","OBJECT_ID":"2021-040Z","SEMIMAJOR_AXIS":"6925.297","TLE_LINE1":"1 48451U 21040Z   21254.91667824 -.00031840  00000-0 -21273-2 0  9991","ECCENTRICITY":"0.00011390","FILE":"3113310"},{"LAUNCH_DATE":"2021-05-09","OBJECT_ID":"2021-040AA","MEAN_MOTION_DOT":"-0.00031408","FILE":"3113310","TLE_LINE1":"1 48452U 21040AA  21254.91667824 -.00031408  00000-0 -20987-2 0  9993","ECCENTRICITY":"0.00012790","SEMIMAJOR_AXIS":"6925.336","RA_OF_ASC_NODE":"342.8296","RCS_SIZE":"LARGE","DECAY_DATE":null,"COUNTRY_CODE":"US","BSTAR":"-0.00209870000000","EPHEMERIS_TYPE":"0","INCLINATION":"53.0533","OBJECT_TYPE":"PAYLOAD","MEAN_ELEMENT_THEORY":"SGP4","TLE_LINE2":"2 48452  53.0533 342.8296 0001279 105.2731  74.7985 15.06404255 20763","PERIAPSIS":"546.315","REV_AT_EPOCH":"2076","OBJECT_NAME":"STARLINK-2703","ARG_OF_PERICENTER":"105.2731","MEAN_ANOMALY":"74.7985","GP_ID":"184512431","TIME_SYSTEM":"UTC","MEAN_MOTION_DDOT":"0.0000000000000","PERIOD":"95.592","CLASSIFICATION_TYPE":"U","ELEMENT_SET_NO":"999","CENTER_NAME":"EARTH","SITE":"AFETR","APOAPSIS":"548.086","NORAD_CAT_ID":"48452","EPOCH":"2021-09-11T22:00:00.999936","MEAN_MOTION":"15.06404255","REF_FRAME":"TEME"},{"TLE_LINE1":"1 48453U 21040AB  21254.91667824 -.00032730  00000-0 -21884-2 0  9990","ECCENTRICITY":"0.00010780","SEMIMAJOR_AXIS":"6925.342","FILE":"3113310","MEAN_MOTION_DOT":"-0.00032730","OBJECT_ID":"2021-040AB","LAUNCH_DATE":"2021-05-09","MEAN_ELEMENT_THEORY":"SGP4","OBJECT_TYPE":"PAYLOAD","PERIAPSIS":"546.461","TLE_LINE2":"2 48453  53.0548 342.8333 0001078 102.7460 112.2024 15.06402031 20762","RCS_SIZE":"LARGE","RA_OF_ASC_NODE":"342.8333","EPHEMERIS_TYPE":"0","INCLINATION":"53.0548","BSTAR":"-0.00218840000000","DECAY_DATE":null,"COUNTRY_CODE":"US","CLASSIFICATION_TYPE":"U","PERIOD":"95.592","ELEMENT_SET_NO":"999","ARG_OF_PERICENTER":"102.7460","OBJECT_NAME":"STARLINK-2620","REV_AT_EPOCH":"2076","GP_ID":"184512426","TIME_SYSTEM":"UTC","MEAN_MOTION_DDOT":"0.0000000000000","MEAN_ANOMALY":"112.2024","EPOCH":"2021-09-11T22:00:00.999936","MEAN_MOTION":"15.06402031","NORAD_CAT_ID":"48453","SITE":"AFETR","APOAPSIS":"547.954","REF_FRAME":"TEME","CENTER_NAME":"EARTH"},{"PERIAPSIS":"546.401","TLE_LINE2":"2 48454  53.0538 342.8294 0001088  83.3885 151.5508 15.06419385  3599","OBJECT_TYPE":"PAYLOAD","MEAN_ELEMENT_THEORY":"SGP4","DECAY_DATE":null,"COUNTRY_CODE":"US","EPHEMERIS_TYPE":"0","INCLINATION":"53.0538","BSTAR":"-0.00222230000000","RA_OF_ASC_NODE":"342.8294","RCS_SIZE":"LARGE","FILE":"3113379","TLE_LINE1":"1 48454U 21040AC  21254.91667824 -.00033245  00000-0 -22223-2 0  9991","SEMIMAJOR_AXIS":"6925.289","ECCENTRICITY":"0.00010880","OBJECT_ID":"2021-040AC","LAUNCH_DATE":"2021-05-09","MEAN_MOTION_DOT":"-0.00033245","REF_FRAME":"TEME","SITE":"AFETR","APOAPSIS":"547.908","EPOCH":"2021-09-11T22:00:00.999936","MEAN_MOTION":"15.06419385","NORAD_CAT_ID":"48454","CENTER_NAME":"EARTH","ELEMENT_SET_NO":"999","CLASSIFICATION_TYPE":"U","PERIOD":"95.591","GP_ID":"184536303","MEAN_MOTION_DDOT":"0.0000000000000","TIME_SYSTEM":"UTC","MEAN_ANOMALY":"151.5508","REV_AT_EPOCH":"359","ARG_OF_PERICENTER":"83.3885","OBJECT_NAME":"STARLINK-2654"}];
